[{"OBJECT_NAME":"JILIN-1 KUANFU-01B","OBJECT_ID":"2021-061A","EPOCH":"2026-03-09T22:54:34.499808","MEAN_MOTION":15.09454544,"ECCENTRICITY":0.00089006,"INCLINATION":97.5272,"RA_OF_ASC_NODE":146.9765,"ARG_OF_PERICENTER":57.5197,"MEAN_ANOMALY":302.6891,"EPHEMERIS_TYPE":0,"CLASSIFICATION_TYPE":"U","NORAD_CAT_ID":49003,"ELEMENT_SET_NO":999,"REV_AT_EPOCH":25837,"BSTAR":0.00023291265,"MEAN_MOTION_DOT":3.668e-5,"MEAN_MOTION_DDOT":0},{"OBJECT_NAME":"STARLINK-4796","OBJECT_ID":"2022-119Z","EPOCH":"2026-03-09T21:42:46.422144","MEAN_MOTION":15.08834839,"ECCENTRICITY":0.00013234,"INCLINATION":53.2179,"RA_OF_ASC_NODE":313.4174,"ARG_OF_PERICENTER":102.2266,"MEAN_ANOMALY":257.8874,"EPHEMERIS_TYPE":0,"CLASSIFICATION_TYPE":"U","NORAD_CAT_ID":53909,"ELEMENT_SET_NO":999,"REV_AT_EPOCH":19185,"BSTAR":-1.8195699e-5,"MEAN_MOTION_DOT":-5.77e-6,"MEAN_MOTION_DDOT":0}]
